start=new Date('2022-02-18T00:00:00.000Z').valueOf();
sats=[{"CLASSIFICATION_TYPE":"U","MEAN_ANOMALY":"281.9441","NORAD_CAT_ID":"46541","PERIAPSIS":"545.983","EPOCH":"2022-02-17T22:02:34.864512","OBJECT_NAME":"STARLINK-1687","MEAN_ELEMENT_THEORY":"SGP4","SEMIMAJOR_AXIS":"6925.303","SITE":"AFETR","PERIOD":"95.591","EPHEMERIS_TYPE":"0","RCS_SIZE":"LARGE","MEAN_MOTION_DOT":"0.00001686","OBJECT_ID":"2020-070K","ARG_OF_PERICENTER":"78.1740","BSTAR":"0.00013203000000","LAUNCH_DATE":"2020-10-06","MEAN_MOTION":"15.06414756","TLE_LINE1":"1 46541U 20070K   22048.91845908  .00001686  00000-0  13203-3 0  9992","APOAPSIS":"548.353","INCLINATION":"53.0568","GP_ID":"196244254","MEAN_MOTION_DDOT":"0.0000000000000","RA_OF_ASC_NODE":"324.0571","TLE_LINE2":"2 46541  53.0568 324.0571 0001711  78.1740 281.9441 15.06414756 76593","REV_AT_EPOCH":"7659","DECAY_DATE":null,"OBJECT_TYPE":"PAYLOAD","CENTER_NAME":"EARTH","COUNTRY_CODE":"US","REF_FRAME":"TEME","ECCENTRICITY":"0.00017110","TIME_SYSTEM":"UTC","FILE":"3305402","ELEMENT_SET_NO":"999"},{"PERIAPSIS":"546.058","EPOCH":"2022-02-17T20:29:41.716320","OBJECT_NAME":"STARLINK-1692","MEAN_ANOMALY":"285.0095","CLASSIFICATION_TYPE":"U","NORAD_CAT_ID":"46542","SITE":"AFETR","EPHEMERIS_TYPE":"0","RCS_SIZE":"LARGE","PERIOD":"95.592","SEMIMAJOR_AXIS":"6925.329","MEAN_ELEMENT_THEORY":"SGP4","BSTAR":"-0.00002057300000","OBJECT_ID":"2020-070L","ARG_OF_PERICENTER":"75.1075","MEAN_MOTION_DOT":"-0.00000588","APOAPSIS":"548.329","INCLINATION":"53.0559","GP_ID":"196244504","TLE_LINE1":"1 46542U 20070L   22048.85395505 -.00000588  00000-0 -20573-4 0  9990","MEAN_MOTION":"15.06406539","LAUNCH_DATE":"2020-10-06","MEAN_MOTION_DDOT":"0.0000000000000","RA_OF_ASC_NODE":"344.3501","OBJECT_TYPE":"PAYLOAD","DECAY_DATE":null,"TLE_LINE2":"2 46542  53.0559 344.3501 0001639  75.1075 285.0095 15.06406539 76308","REV_AT_EPOCH":"7630","ECCENTRICITY":"0.00016390","REF_FRAME":"TEME","COUNTRY_CODE":"US","CENTER_NAME":"EARTH","ELEMENT_SET_NO":"999","FILE":"3305402","TIME_SYSTEM":"UTC"},{"TLE_LINE2":"2 46543  53.0552 346.7901 0001858  54.8451 305.2712 15.06412519 76224","DECAY_DATE":null,"REV_AT_EPOCH":"7622","OBJECT_TYPE":"PAYLOAD","MEAN_MOTION_DDOT":"0.0000000000000","RA_OF_ASC_NODE":"346.7901","TIME_SYSTEM":"UTC","FILE":"3304735","ELEMENT_SET_NO":"999","COUNTRY_CODE":"US","CENTER_NAME":"EARTH","ECCENTRICITY":"0.00018580","REF_FRAME":"TEME","SEMIMAJOR_AXIS":"6925.310","MEAN_ELEMENT_THEORY":"SGP4","SITE":"AFETR","EPHEMERIS_TYPE":"0","RCS_SIZE":"LARGE","PERIOD":"95.591","MEAN_ANOMALY":"305.2712","CLASSIFICATION_TYPE":"U","NORAD_CAT_ID":"46543","PERIAPSIS":"545.888","EPOCH":"2022-02-17T07:24:08.412480","OBJECT_NAME":"STARLINK-1693","TLE_LINE1":"1 46543U 20070M   22048.30843070  .00005519  00000-0  38901-3 0  9996","MEAN_MOTION":"15.06412519","LAUNCH_DATE":"2020-10-06","INCLINATION":"53.0552","APOAPSIS":"548.462","GP_ID":"196207146","MEAN_MOTION_DOT":"0.00005519","OBJECT_ID":"2020-070M","BSTAR":"0.00038901000000","ARG_OF_PERICENTER":"54.8451"},{"LAUNCH_DATE":"2020-10-06","TLE_LINE1":"1 46544U 20070N   22048.90141612  .00003891  00000-0  27994-3 0  9997","MEAN_MOTION":"15.06406837","INCLINATION":"53.0560","APOAPSIS":"548.504","GP_ID":"196243503","MEAN_MOTION_DOT":"0.00003891","BSTAR":"0.00027994000000","OBJECT_ID":"2020-070N","ARG_OF_PERICENTER":"60.8385","MEAN_ELEMENT_THEORY":"SGP4","SEMIMAJOR_AXIS":"6925.328","SITE":"AFETR","PERIOD":"95.592","RCS_SIZE":"LARGE","EPHEMERIS_TYPE":"0","CLASSIFICATION_TYPE":"U","MEAN_ANOMALY":"299.2793","NORAD_CAT_ID":"46544","EPOCH":"2022-02-17T21:38:02.352768","PERIAPSIS":"545.882","OBJECT_NAME":"STARLINK-1694","TIME_SYSTEM":"UTC","ELEMENT_SET_NO":"999","FILE":"3305402","CENTER_NAME":"EARTH","COUNTRY_CODE":"US","REF_FRAME":"TEME","ECCENTRICITY":"0.00018930","TLE_LINE2":"2 46544  53.0560 329.1391 0001893  60.8385 299.2793 15.06406837 76524","REV_AT_EPOCH":"7652","DECAY_DATE":null,"OBJECT_TYPE":"PAYLOAD","MEAN_MOTION_DDOT":"0.0000000000000","RA_OF_ASC_NODE":"329.1391"},{"RA_OF_ASC_NODE":"345.7506","MEAN_MOTION_DDOT":"0.0000000000000","OBJECT_TYPE":"PAYLOAD","TLE_LINE2":"2 46545  53.0559 345.7506 0001592  71.7359 288.3804 15.06399108 76257","DECAY_DATE":null,"REV_AT_EPOCH":"7625","REF_FRAME":"TEME","ECCENTRICITY":"0.00015920","CENTER_NAME":"EARTH","COUNTRY_CODE":"US","ELEMENT_SET_NO":"999","FILE":"3304735","TIME_SYSTEM":"UTC","OBJECT_NAME":"STARLINK-1696","PERIAPSIS":"546.114","EPOCH":"2022-02-17T13:03:50.926752","NORAD_CAT_ID":"46545","CLASSIFICATION_TYPE":"U","MEAN_ANOMALY":"288.3804","PERIOD":"95.592","RCS_SIZE":"LARGE","EPHEMERIS_TYPE":"0","SITE":"AFETR","SEMIMAJOR_AXIS":"6925.351","MEAN_ELEMENT_THEORY":"SGP4","OBJECT_ID":"2020-070P","BSTAR":"0.00039365000000","ARG_OF_PERICENTER":"71.7359","MEAN_MOTION_DOT":"0.00005587","GP_ID":"196206645","INCLINATION":"53.0559","APOAPSIS":"548.319","LAUNCH_DATE":"2020-10-06","TLE_LINE1":"1 46545U 20070P   22048.54433943  .00005587  00000-0  39365-3 0  9998","MEAN_MOTION":"15.06399108"},{"DECAY_DATE":null,"TLE_LINE2":"2 46546  53.0559 344.6078 0001678  65.1572 294.9591 15.06396334 76297","REV_AT_EPOCH":"7629","OBJECT_TYPE":"PAYLOAD","RA_OF_ASC_NODE":"344.6078","MEAN_MOTION_DDOT":"0.0000000000000","TIME_SYSTEM":"UTC","ELEMENT_SET_NO":"999","FILE":"3305402","CENTER_NAME":"EARTH","COUNTRY_CODE":"US","REF_FRAME":"TEME","ECCENTRICITY":"0.00016780","SEMIMAJOR_AXIS":"6925.360","MEAN_ELEMENT_THEORY":"SGP4","PERIOD":"95.592","EPHEMERIS_TYPE":"0","RCS_SIZE":"LARGE","SITE":"AFETR","NORAD_CAT_ID":"46546","CLASSIFICATION_TYPE":"U","MEAN_ANOMALY":"294.9591","OBJECT_NAME":"STARLINK-1697","PERIAPSIS":"546.063","EPOCH":"2022-02-17T19:04:46.427520","LAUNCH_DATE":"2020-10-06","TLE_LINE1":"1 46546U 20070Q   22048.79498180  .00002716  00000-0  20120-3 0  9990","MEAN_MOTION":"15.06396334","GP_ID":"196244004","APOAPSIS":"548.387","INCLINATION":"53.0559","MEAN_MOTION_DOT":"0.00002716","OBJECT_ID":"2020-070Q","BSTAR":"0.00020120000000","ARG_OF_PERICENTER":"65.1572"},{"OBJECT_TYPE":"PAYLOAD","TLE_LINE2":"2 46547  53.0557 345.6713 0001825  67.7858 292.3324 15.06396435 76289","DECAY_DATE":null,"REV_AT_EPOCH":"7628","RA_OF_ASC_NODE":"345.6713","MEAN_MOTION_DDOT":"0.0000000000000","ELEMENT_SET_NO":"999","FILE":"3305298","TIME_SYSTEM":"UTC","ECCENTRICITY":"0.00018250","REF_FRAME":"TEME","COUNTRY_CODE":"US","CENTER_NAME":"EARTH","EPHEMERIS_TYPE":"0","RCS_SIZE":"LARGE","PERIOD":"95.592","SITE":"AFETR","SEMIMAJOR_AXIS":"6925.359","MEAN_ELEMENT_THEORY":"SGP4","OBJECT_NAME":"STARLINK-1698","EPOCH":"2022-02-17T13:25:04.448064","PERIAPSIS":"545.961","NORAD_CAT_ID":"46547","MEAN_ANOMALY":"292.3324","CLASSIFICATION_TYPE":"U","GP_ID":"196220161","INCLINATION":"53.0557","APOAPSIS":"548.488","MEAN_MOTION":"15.06396435","TLE_LINE1":"1 46547U 20070R   22048.55907926  .00001698  00000-0  13285-3 0  9990","LAUNCH_DATE":"2020-10-06","BSTAR":"0.00013285000000","ARG_OF_PERICENTER":"67.7858","OBJECT_ID":"2020-070R","MEAN_MOTION_DOT":"0.00001698"},{"NORAD_CAT_ID":"46548","CLASSIFICATION_TYPE":"U","MEAN_ANOMALY":"289.0340","OBJECT_NAME":"STARLINK-1699","PERIAPSIS":"546.046","EPOCH":"2022-02-17T20:03:08.534880","SEMIMAJOR_AXIS":"6925.318","MEAN_ELEMENT_THEORY":"SGP4","PERIOD":"95.592","RCS_SIZE":"LARGE","EPHEMERIS_TYPE":"0","SITE":"AFETR","MEAN_MOTION_DOT":"0.00003079","OBJECT_ID":"2020-070S","ARG_OF_PERICENTER":"71.0827","BSTAR":"0.00022548000000","LAUNCH_DATE":"2020-10-06","TLE_LINE1":"1 46548U 20070S   22048.83551545  .00003079  00000-0  22548-3 0  9991","MEAN_MOTION":"15.06410062","GP_ID":"196243003","APOAPSIS":"548.320","INCLINATION":"53.0549","RA_OF_ASC_NODE":"344.4378","MEAN_MOTION_DDOT":"0.0000000000000","DECAY_DATE":null,"TLE_LINE2":"2 46548  53.0549 344.4378 0001642  71.0827 289.0340 15.06410062 76303","REV_AT_EPOCH":"7630","OBJECT_TYPE":"PAYLOAD","CENTER_NAME":"EARTH","COUNTRY_CODE":"US","REF_FRAME":"TEME","ECCENTRICITY":"0.00016420","TIME_SYSTEM":"UTC","FILE":"3305402","ELEMENT_SET_NO":"999"},{"CLASSIFICATION_TYPE":"U","MEAN_ANOMALY":"291.0813","NORAD_CAT_ID":"46549","EPOCH":"2022-02-17T12:47:56.201568","PERIAPSIS":"546.231","OBJECT_NAME":"STARLINK-1700","MEAN_ELEMENT_THEORY":"SGP4","SEMIMAJOR_AXIS":"6925.343","SITE":"AFETR","PERIOD":"95.592","RCS_SIZE":"LARGE","EPHEMERIS_TYPE":"0","MEAN_MOTION_DOT":"0.00005892","BSTAR":"0.00041412000000","OBJECT_ID":"2020-070T","ARG_OF_PERICENTER":"69.0327","LAUNCH_DATE":"2020-10-06","TLE_LINE1":"1 46549U 20070T   22048.53328937  .00005892  00000-0  41412-3 0  9992","MEAN_MOTION":"15.06401908","INCLINATION":"53.0545","APOAPSIS":"548.184","GP_ID":"196217743","MEAN_MOTION_DDOT":"0.0000000000000","RA_OF_ASC_NODE":"345.7829","TLE_LINE2":"2 46549  53.0545 345.7829 0001410  69.0327 291.0813 15.06401908 75968","DECAY_DATE":null,"REV_AT_EPOCH":"7596","OBJECT_TYPE":"PAYLOAD","CENTER_NAME":"EARTH","COUNTRY_CODE":"US","REF_FRAME":"TEME","ECCENTRICITY":"0.00014100","TIME_SYSTEM":"UTC","FILE":"3305135","ELEMENT_SET_NO":"999"},{"CLASSIFICATION_TYPE":"U","MEAN_ANOMALY":"302.3081","NORAD_CAT_ID":"46550","EPOCH":"2022-02-17T15:37:46.142400","PERIAPSIS":"545.990","OBJECT_NAME":"STARLINK-1701","SEMIMAJOR_AXIS":"6925.332","MEAN_ELEMENT_THEORY":"SGP4","SITE":"AFETR","PERIOD":"95.592","RCS_SIZE":"LARGE","EPHEMERIS_TYPE":"0","MEAN_MOTION_DOT":"0.00004793","OBJECT_ID":"2020-070U","BSTAR":"0.00034043000000","ARG_OF_PERICENTER":"57.8077","LAUNCH_DATE":"2020-10-06","MEAN_MOTION":"15.06405443","TLE_LINE1":"1 46550U 20070U   22048.65122850  .00004793  00000-0  34043-3 0  9994","APOAPSIS":"548.404","INCLINATION":"53.0556","GP_ID":"196244505","MEAN_MOTION_DDOT":"0.0000000000000","RA_OF_ASC_NODE":"345.2609","DECAY_DATE":null,"TLE_LINE2":"2 46550  53.0556 345.2609 0001743  57.8077 302.3081 15.06405443 76275","REV_AT_EPOCH":"7627","OBJECT_TYPE":"PAYLOAD","CENTER_NAME":"EARTH","COUNTRY_CODE":"US","REF_FRAME":"TEME","ECCENTRICITY":"0.00017430","TIME_SYSTEM":"UTC","FILE":"3305402","ELEMENT_SET_NO":"999"}];
